IRIDIUM 26              
1 24903U 97043A   25170.34452475  .00000325  00000+0  10286-3 0  9999
2 24903  86.3956 109.7167 0002488  85.0315 275.1166 14.37147755457055
IRIDIUM 22              
1 24907U 97043E   25170.76391553  .00000281  00000+0  89912-4 0  9992
2 24907  86.3962 113.0821 0002293  83.9475 276.1983 14.35960309457143
DUMMY MASS 2            
1 24926U 97048B   25170.33125782  .00000393  00000+0  40938-4 0  9999
2 24926  86.3353 135.9453 0008882 136.8994 223.2928 14.86740711505220
IRIDIUM 29              
1 24944U 97051A   25170.36797655  .00000411  00000+0  13354-3 0  9992
2 24944  86.3968 142.9830 0002092  87.3062 272.8375 14.36470271453585
IRIDIUM 33              
1 24946U 97051C   25170.84033973  .00000301  00000+0  98910-4 0  9993
2 24946  86.3884 142.0452 0010044  74.0092 286.2210 14.34894597453134
IRIDIUM 36              
1 24967U 97056C   25170.58178727  .00000346  00000+0  10878-3 0  9994
2 24967  86.3986 171.9923 0002392  83.0754 277.0715 14.37612086452564
